{
  "type": "FeatureCollection",
  "features": [
    {
      "type": "Feature",
      "properties": {
        "norad_id": 33860,
        "name": "IRIDIUM 33 DEB",
        "group": "iridium-33-debris",
        "lat": 85.82730482153424,
        "lon": 151.8077760306203,
        "alt_km": 659.7096754965096,
        "timestamp": "2025-12-02T07:10:09.500721+00:00",
        "meta_object_name": "IRIDIUM 33 DEB",
        "meta_object_id": "1997-051AD",
        "meta_epoch": "2025-12-01T14:58:50.993184",
        "meta_mean_motion": 14.67126108,
        "meta_eccentricity": 0.00087844,
        "meta_inclination": 86.3853,
        "meta_ra_of_asc_node": 32.1567,
        "meta_arg_of_pericenter": 33.8534,
        "meta_mean_anomaly": 97.8654,
        "meta_ephemeris_type": 0,
        "meta_classification_type": "U",
        "meta_norad_cat_id": 33860,
        "meta_element_set_no": 999,
        "meta_rev_at_epoch": 88559,
        "meta_bstar": 0.0012822025,
        "meta_mean_motion_dot": 7.23e-05,
        "meta_mean_motion_ddot": 0,
        "tle_line1": "1 33860U 97051AD  25335.62420131  .00007230  00000+0  12822-2 0  9997",
        "tle_line2": "2 33860  86.3853  32.1567 0008784  33.8534  97.8654 14.67126108885592"
      },
      "geometry": {
        "type": "Point",
        "coordinates": [
          151.8077760306203,
          85.82730482153424
        ]
      }
    },
    {
      "type": "Feature",
      "properties": {
        "norad_id": 33862,
        "name": "IRIDIUM 33 DEB",
        "group": "iridium-33-debris",
        "lat": 48.48748824781097,
        "lon": 46.19976269692544,
        "alt_km": 637.5713491163706,
        "timestamp": "2025-12-02T07:10:09.500733+00:00",
        "meta_object_name": "IRIDIUM 33 DEB",
        "meta_object_id": "1997-051AF",
        "meta_epoch": "2025-12-01T16:46:24.832992",
        "meta_mean_motion": 14.69176898,
        "meta_eccentricity": 0.0054068,
        "meta_inclination": 86.4104,
        "meta_ra_of_asc_node": 42.397,
        "meta_arg_of_pericenter": 106.0127,
        "meta_mean_anomaly": 12.7609,
        "meta_ephemeris_type": 0,
        "meta_classification_type": "U",
        "meta_norad_cat_id": 33862,
        "meta_element_set_no": 999,
        "meta_rev_at_epoch": 88661,
        "meta_bstar": 0.0013912,
        "meta_mean_motion_dot": 8.398e-05,
        "meta_mean_motion_ddot": 0,
        "tle_line1": "1 33862U 97051AF  25335.69889853  .00008398  00000+0  13912-2 0  9993",
        "tle_line2": "2 33862  86.4104  42.3970 0054068 106.0127  12.7609 14.69176898886615"
      },
      "geometry": {
        "type": "Point",
        "coordinates": [
          46.19976269692544,
          48.48748824781097
        ]
      }
    },
    {
      "type": "Feature",
      "properties": {
        "norad_id": 33866,
        "name": "IRIDIUM 33 DEB",
        "group": "iridium-33-debris",
        "lat": -29.74319081050775,
        "lon": 95.33340692624341,
        "alt_km": 871.5994214601242,
        "timestamp": "2025-12-02T07:10:09.500745+00:00",
        "meta_object_name": "IRIDIUM 33 DEB",
        "meta_object_id": "1997-051AK",
        "meta_epoch": "2025-12-01T18:31:19.752960",
        "meta_mean_motion": 14.25209586,
        "meta_eccentricity": 0.0113517,
        "meta_inclination": 86.2996,
        "meta_ra_of_asc_node": 97.6755,
        "meta_arg_of_pericenter": 196.403,
        "meta_mean_anomaly": 310.9426,
        "meta_ephemeris_type": 0,
        "meta_classification_type": "U",
        "meta_norad_cat_id": 33866,
        "meta_element_set_no": 999,
        "meta_rev_at_epoch": 86654,
        "meta_bstar": 0.00069216,
        "meta_mean_motion_dot": 1.758e-05,
        "meta_mean_motion_ddot": 0,
        "tle_line1": "1 33866U 97051AK  25335.77175640  .00001758  00000+0  69216-3 0  9990",
        "tle_line2": "2 33866  86.2996  97.6755 0113517 196.4030 310.9426 14.25209586866544"
      },
      "geometry": {
        "type": "Point",
        "coordinates": [
          95.33340692624341,
          -29.74319081050775
        ]
      }
    },
    {
      "type": "Feature",
      "properties": {
        "norad_id": 33867,
        "name": "IRIDIUM 33 DEB",
        "group": "iridium-33-debris",
        "lat": 4.802535870402696,
        "lon": -4.22841342341852,
        "alt_km": 412.24896683142106,
        "timestamp": "2025-12-02T07:10:09.500757+00:00",
        "meta_object_name": "IRIDIUM 33 DEB",
        "meta_object_id": "1997-051AL",
        "meta_epoch": "2025-12-01T12:35:00.924000",
        "meta_mean_motion": 15.52112604,
        "meta_eccentricity": 0.00117875,
        "meta_inclination": 86.3632,
        "meta_ra_of_asc_node": 355.8583,
        "meta_arg_of_pericenter": 103.3545,
        "meta_mean_anomaly": 256.903,
        "meta_ephemeris_type": 0,
        "meta_classification_type": "U",
        "meta_norad_cat_id": 33867,
        "meta_element_set_no": 999,
        "meta_rev_at_epoch": 89336,
        "meta_bstar": 0.0059603838,
        "meta_mean_motion_dot": 0.00377274,
        "meta_mean_motion_ddot": 0,
        "tle_line1": "1 33867U 97051AL  25335.52431625  .00377274  00000+0  59604-2 0  9990",
        "tle_line2": "2 33867  86.3632 355.8583 0011787 103.3545 256.9030 15.52112604893360"
      },
      "geometry": {
        "type": "Point",
        "coordinates": [
          -4.22841342341852,
          4.802535870402696
        ]
      }
    },
    {
      "type": "Feature",
      "properties": {
        "norad_id": 33870,
        "name": "IRIDIUM 33 DEB",
        "group": "iridium-33-debris",
        "lat": 16.433200359579264,
        "lon": 63.806348688901124,
        "alt_km": 754.1396112856492,
        "timestamp": "2025-12-02T07:10:09.500768+00:00",
        "meta_object_name": "IRIDIUM 33 DEB",
        "meta_object_id": "1997-051AP",
        "meta_epoch": "2025-12-01T18:22:45.914016",
        "meta_mean_motion": 14.45746903,
        "meta_eccentricity": 0.0020333,
        "meta_inclination": 86.3755,
        "meta_ra_of_asc_node": 62.9634,
        "meta_arg_of_pericenter": 214.8922,
        "meta_mean_anomaly": 269.7479,
        "meta_ephemeris_type": 0,
        "meta_classification_type": "U",
        "meta_norad_cat_id": 33870,
        "meta_element_set_no": 999,
        "meta_rev_at_epoch": 87978,
        "meta_bstar": 0.00087817,
        "meta_mean_motion_dot": 3.137e-05,
        "meta_mean_motion_ddot": 0,
        "tle_line1": "1 33870U 97051AP  25335.76580919  .00003137  00000+0  87817-3 0  9993",
        "tle_line2": "2 33870  86.3755  62.9634 0020333 214.8922 269.7479 14.45746903879782"
      },
      "geometry": {
        "type": "Point",
        "coordinates": [
          63.806348688901124,
          16.433200359579264
        ]
      }
    },
    {
      "type": "Feature",
      "properties": {
        "norad_id": 33881,
        "name": "IRIDIUM 33 DEB",
        "group": "iridium-33-debris",
        "lat": -26.3414134712251,
        "lon": -66.92981225573028,
        "alt_km": 667.848915821115,
        "timestamp": "2025-12-02T07:10:09.500778+00:00",
        "meta_object_name": "IRIDIUM 33 DEB",
        "meta_object_id": "1997-051BA",
        "meta_epoch": "2025-12-01T19:20:33.045792",
        "meta_mean_motion": 14.56252651,
        "meta_eccentricity": 0.0061043,
        "meta_inclination": 86.3869,
        "meta_ra_of_asc_node": 111.4914,
        "meta_arg_of_pericenter": 210.0929,
        "meta_mean_anomaly": 294.4565,
        "meta_ephemeris_type": 0,
        "meta_classification_type": "U",
        "meta_norad_cat_id": 33881,
        "meta_element_set_no": 999,
        "meta_rev_at_epoch": 87341,
        "meta_bstar": 0.0018925,
        "meta_mean_motion_dot": 8.609e-05,
        "meta_mean_motion_ddot": 0,
        "tle_line1": "1 33881U 97051BA  25335.80593803  .00008609  00000+0  18925-2 0  9998",
        "tle_line2": "2 33881  86.3869 111.4914 0061043 210.0929 294.4565 14.56252651873418"
      },
      "geometry": {
        "type": "Point",
        "coordinates": [
          -66.92981225573028,
          -26.3414134712251
        ]
      }
    },
    {
      "type": "Feature",
      "properties": {
        "norad_id": 33884,
        "name": "IRIDIUM 33 DEB",
        "group": "iridium-33-debris",
        "lat": 86.32509551558105,
        "lon": 113.28256993252971,
        "alt_km": 630.8089668189868,
        "timestamp": "2025-12-02T07:10:09.500789+00:00",
        "meta_object_name": "IRIDIUM 33 DEB",
        "meta_object_id": "1997-051BD",
        "meta_epoch": "2025-12-01T11:28:58.158624",
        "meta_mean_motion": 14.77093089,
        "meta_eccentricity": 0.0010918,
        "meta_inclination": 86.3702,
        "meta_ra_of_asc_node": 14.9006,
        "meta_arg_of_pericenter": 4.651,
        "meta_mean_anomaly": 46.8048,
        "meta_ephemeris_type": 0,
        "meta_classification_type": "U",
        "meta_norad_cat_id": 33884,
        "meta_element_set_no": 999,
        "meta_rev_at_epoch": 88681,
        "meta_bstar": 0.0016171827,
        "meta_mean_motion_dot": 0.00011462,
        "meta_mean_motion_ddot": 0,
        "tle_line1": "1 33884U 97051BD  25335.47845091  .00011462  00000+0  16172-2 0  9996",
        "tle_line2": "2 33884  86.3702  14.9006 0010918   4.6510  46.8048 14.77093089886818"
      },
      "geometry": {
        "type": "Point",
        "coordinates": [
          113.28256993252971,
          86.32509551558105
        ]
      }
    }
  ]
}